[Satellite]
VERSION=1.1
NAME=EAGLET 1
NICKNAME=EAGLET 1
TLE1=1 43790U 18099AJ  22335.64665104  .00001718  00000-0  15245-3 0  9994
TLE2=2 43790  97.6037  39.1082 0014015  73.1885 287.0873 14.97399912217800
STATUS=0
